{
    "links": {
        "self": "http://www.neowsapp.com/rest/v1/neo/3829451?api_key=iIulBulltgU6a56xZRHN4H3l9WmuAYTsLGpBGhQ2"
    },
    "id": "3829451",
    "neo_reference_id": "3829451",
    "name": "(2018 RX6)",
    "designation": "2018 RX6",
    "nasa_jpl_url": "http://ssd.jpl.nasa.gov/sbdb.cgi?sstr=3829451",
    "absolute_magnitude_h": 25.9,
    "estimated_diameter": {
        "kilometers": {
            "estimated_diameter_min": 0.0175612318,
            "estimated_diameter_max": 0.0392681082
        },
        "meters": {
            "estimated_diameter_min": 17.561231848,
            "estimated_diameter_max": 39.2681081809
        },
        "miles": {
            "estimated_diameter_min": 0.0109120402,
            "estimated_diameter_max": 0.0244000636
        },
        "feet": {
            "estimated_diameter_min": 57.6155918963,
            "estimated_diameter_max": 128.8323800441
        }
    },
    "is_potentially_hazardous_asteroid": false,
    "close_approach_data": [
        {
            "close_approach_date": "2018-09-23",
            "close_approach_date_full": "2018-Sep-23 23:16",
            "epoch_date_close_approach": 1537744560000,
            "relative_velocity": {
                "kilometers_per_second": "8.1595794403",
                "kilometers_per_hour": "29374.4859851993",
                "miles_per_hour": "18252.1632500812"
            },
            "miss_distance": {
                "astronomical": "0.0539973639",
                "lunar": "21.0049745571",
                "kilometers": "8077890.625054893",
                "miles": "5019368.4831998034"
            },
            "orbiting_body": "Earth"
        }
    ],
    "orbital_data": {
        "orbit_id": "3",
        "orbit_determination_date": "2018-09-22 07:58:50",
        "first_observation_date": "2018-09-12",
        "last_observation_date": "2018-09-21",
        "data_arc_in_days": 9,
        "observations_used": 38,
        "orbit_uncertainty": "8",
        "minimum_orbit_intersection": ".0363845",
        "jupiter_tisserand_invariant": "3.240",
        "epoch_osculation": "2458377.5",
        "eccentricity": ".5799677523027782",
        "semi_major_axis": "2.45050391377194",
        "inclination": "2.951346253185596",
        "ascending_node_longitude": "174.8892181003723",
        "orbital_period": "1401.139987138948",
        "perihelion_distance": "1.029290666892467",
        "perihelion_argument": "205.2322882149165",
        "aphelion_distance": "3.871717160651413",
        "perihelion_time": "2458400.673024772401",
        "mean_anomaly": "354.0460703465477",
        "mean_motion": ".2569336421088806",
        "equinox": "J2000",
        "orbit_class": {
            "orbit_class_type": "AMO",
            "orbit_class_description": "Near-Earth asteroid orbits similar to that of 1221 Amor",
            "orbit_class_range": "1.017 AU < q (perihelion) < 1.3 AU"
        }
    },
    "is_sentry_object": false
}